{
  "type": "FeatureCollection",
  "features": [
    {
      "type": "Feature",
      "properties": {
        "norad_id": 30395,
        "name": "FENGYUN 1C DEB",
        "group": "fengyun-1c-debris",
        "lat": 23.792908755478187,
        "lon": 177.0998588578419,
        "alt_km": 930.5401152891036,
        "timestamp": "2025-12-03T06:58:43.514071+00:00",
        "meta_object_name": "FENGYUN 1C DEB",
        "meta_object_id": "1999-025ADJ",
        "meta_epoch": "2025-12-02T20:30:52.077888",
        "meta_mean_motion": 13.96668117,
        "meta_eccentricity": 0.0160864,
        "meta_inclination": 98.9309,
        "meta_ra_of_asc_node": 352.7009,
        "meta_arg_of_pericenter": 53.3689,
        "meta_mean_anomaly": 69.559,
        "meta_ephemeris_type": 0,
        "meta_classification_type": "U",
        "meta_norad_cat_id": 30395,
        "meta_element_set_no": 999,
        "meta_rev_at_epoch": 95885,
        "meta_bstar": 0.00071523,
        "meta_mean_motion_dot": 1.064e-05,
        "meta_mean_motion_ddot": 0,
        "tle_line1": "1 30395U 99025ADJ 25336.85476942  .00001064  00000+0  71523-3 0  9990",
        "tle_line2": "2 30395  98.9309 352.7009 0160864  53.3689  69.5590 13.96668117958852"
      },
      "geometry": {
        "type": "Point",
        "coordinates": [
          177.0998588578419,
          23.792908755478187
        ]
      }
    },
    {
      "type": "Feature",
      "properties": {
        "norad_id": 30396,
        "name": "FENGYUN 1C DEB",
        "group": "fengyun-1c-debris",
        "lat": 55.47825628079,
        "lon": -28.90974577384511,
        "alt_km": 947.891670160534,
        "timestamp": "2025-12-03T06:58:43.514081+00:00",
        "meta_object_name": "FENGYUN 1C DEB",
        "meta_object_id": "1999-025ADK",
        "meta_epoch": "2025-12-01T23:48:48.049920",
        "meta_mean_motion": 13.87163943,
        "meta_eccentricity": 0.01345654,
        "meta_inclination": 98.2242,
        "meta_ra_of_asc_node": 342.0842,
        "meta_arg_of_pericenter": 159.3065,
        "meta_mean_anomaly": 257.4929,
        "meta_ephemeris_type": 0,
        "meta_classification_type": "U",
        "meta_norad_cat_id": 30396,
        "meta_element_set_no": 999,
        "meta_rev_at_epoch": 95430,
        "meta_bstar": 0.00014450773,
        "meta_mean_motion_dot": 1.47e-06,
        "meta_mean_motion_ddot": 0,
        "tle_line1": "1 30396U 99025ADK 25335.99222280  .00000147  00000+0  14451-3 0  9997",
        "tle_line2": "2 30396  98.2242 342.0842 0134565 159.3065 257.4929 13.87163943954300"
      },
      "geometry": {
        "type": "Point",
        "coordinates": [
          -28.90974577384511,
          55.47825628079
        ]
      }
    },
    {
      "type": "Feature",
      "properties": {
        "norad_id": 30397,
        "name": "FENGYUN 1C DEB",
        "group": "fengyun-1c-debris",
        "lat": -79.06825076055762,
        "lon": 176.2289528318742,
        "alt_km": 1007.1880377086718,
        "timestamp": "2025-12-03T06:58:43.514091+00:00",
        "meta_object_name": "FENGYUN 1C DEB",
        "meta_object_id": "1999-025ADL",
        "meta_epoch": "2025-12-02T09:19:19.737696",
        "meta_mean_motion": 13.98531693,
        "meta_eccentricity": 0.01499125,
        "meta_inclination": 98.4058,
        "meta_ra_of_asc_node": 125.4448,
        "meta_arg_of_pericenter": 121.4792,
        "meta_mean_anomaly": 294.304,
        "meta_ephemeris_type": 0,
        "meta_classification_type": "U",
        "meta_norad_cat_id": 30397,
        "meta_element_set_no": 999,
        "meta_rev_at_epoch": 95620,
        "meta_bstar": 0.0014181986,
        "meta_mean_motion_dot": 2.2e-05,
        "meta_mean_motion_ddot": 0,
        "tle_line1": "1 30397U 99025ADL 25336.38842289  .00002200  00000+0  14182-2 0  9991",
        "tle_line2": "2 30397  98.4058 125.4448 0149912 121.4792 294.3040 13.98531693956200"
      },
      "geometry": {
        "type": "Point",
        "coordinates": [
          176.2289528318742,
          -79.06825076055762
        ]
      }
    },
    {
      "type": "Feature",
      "properties": {
        "norad_id": 30398,
        "name": "FENGYUN 1C DEB",
        "group": "fengyun-1c-debris",
        "lat": -71.36624542031335,
        "lon": -95.89008201885922,
        "alt_km": 870.4658130424286,
        "timestamp": "2025-12-03T06:58:43.514101+00:00",
        "meta_object_name": "FENGYUN 1C DEB",
        "meta_object_id": "1999-025ADM",
        "meta_epoch": "2025-12-02T14:28:20.258400",
        "meta_mean_motion": 13.78679198,
        "meta_eccentricity": 0.01732081,
        "meta_inclination": 99.7139,
        "meta_ra_of_asc_node": 232.8761,
        "meta_arg_of_pericenter": 322.5063,
        "meta_mean_anomaly": 152.8464,
        "meta_ephemeris_type": 0,
        "meta_classification_type": "U",
        "meta_norad_cat_id": 30398,
        "meta_element_set_no": 999,
        "meta_rev_at_epoch": 94617,
        "meta_bstar": 0.00069686465,
        "meta_mean_motion_dot": 7.43e-06,
        "meta_mean_motion_ddot": 0,
        "tle_line1": "1 30398U 99025ADM 25336.60301225  .00000743  00000+0  69686-3 0  9997",
        "tle_line2": "2 30398  99.7139 232.8761 0173208 322.5063 152.8464 13.78679198946170"
      },
      "geometry": {
        "type": "Point",
        "coordinates": [
          -95.89008201885922,
          -71.36624542031335
        ]
      }
    },
    {
      "type": "Feature",
      "properties": {
        "norad_id": 30400,
        "name": "FENGYUN 1C DEB",
        "group": "fengyun-1c-debris",
        "lat": 42.58956252163946,
        "lon": 93.16544729646112,
        "alt_km": 971.3250700443577,
        "timestamp": "2025-12-03T06:58:43.514111+00:00",
        "meta_object_name": "FENGYUN 1C DEB",
        "meta_object_id": "1999-025ADP",
        "meta_epoch": "2025-12-02T18:40:05.528928",
        "meta_mean_motion": 14.09655056,
        "meta_eccentricity": 0.0228526,
        "meta_inclination": 99.1556,
        "meta_ra_of_asc_node": 264.1184,
        "meta_arg_of_pericenter": 3.4018,
        "meta_mean_anomaly": 49.7394,
        "meta_ephemeris_type": 0,
        "meta_classification_type": "U",
        "meta_norad_cat_id": 30400,
        "meta_element_set_no": 999,
        "meta_rev_at_epoch": 95374,
        "meta_bstar": 0.0056836,
        "meta_mean_motion_dot": 0.00012668,
        "meta_mean_motion_ddot": 0,
        "tle_line1": "1 30400U 99025ADP 25336.77784177  .00012668  00000+0  56836-2 0  9991",
        "tle_line2": "2 30400  99.1556 264.1184 0228526   3.4018  49.7394 14.09655056953746"
      },
      "geometry": {
        "type": "Point",
        "coordinates": [
          93.16544729646112,
          42.58956252163946
        ]
      }
    },
    {
      "type": "Feature",
      "properties": {
        "norad_id": 30401,
        "name": "FENGYUN 1C DEB",
        "group": "fengyun-1c-debris",
        "lat": -77.90369136789707,
        "lon": -13.37156413588995,
        "alt_km": 827.6886446920689,
        "timestamp": "2025-12-03T06:58:43.514121+00:00",
        "meta_object_name": "FENGYUN 1C DEB",
        "meta_object_id": "1999-025ADQ",
        "meta_epoch": "2025-12-02T14:37:45.532992",
        "meta_mean_motion": 14.27978831,
        "meta_eccentricity": 0.01074529,
        "meta_inclination": 98.9478,
        "meta_ra_of_asc_node": 213.2501,
        "meta_arg_of_pericenter": 156.7115,
        "meta_mean_anomaly": 203.8987,
        "meta_ephemeris_type": 0,
        "meta_classification_type": "U",
        "meta_norad_cat_id": 30401,
        "meta_element_set_no": 999,
        "meta_rev_at_epoch": 98159,
        "meta_bstar": 0.00018973655,
        "meta_mean_motion_dot": 4.54e-06,
        "meta_mean_motion_ddot": 0,
        "tle_line1": "1 30401U 99025ADQ 25336.60955478  .00000454  00000+0  18974-3 0  9990",
        "tle_line2": "2 30401  98.9478 213.2501 0107452 156.7115 203.8987 14.27978831981593"
      },
      "geometry": {
        "type": "Point",
        "coordinates": [
          -13.37156413588995,
          -77.90369136789707
        ]
      }
    },
    {
      "type": "Feature",
      "properties": {
        "norad_id": 30403,
        "name": "FENGYUN 1C DEB",
        "group": "fengyun-1c-debris",
        "lat": -66.39343991962487,
        "lon": 76.88590226550231,
        "alt_km": 853.570014385291,
        "timestamp": "2025-12-03T06:58:43.514131+00:00",
        "meta_object_name": "FENGYUN 1C DEB",
        "meta_object_id": "1999-025ADS",
        "meta_epoch": "2025-12-02T17:46:58.835136",
        "meta_mean_motion": 14.21399688,
        "meta_eccentricity": 0.0075418,
        "meta_inclination": 99.0609,
        "meta_ra_of_asc_node": 54.9056,
        "meta_arg_of_pericenter": 52.2172,
        "meta_mean_anomaly": 308.5803,
        "meta_ephemeris_type": 0,
        "meta_classification_type": "U",
        "meta_norad_cat_id": 30403,
        "meta_element_set_no": 999,
        "meta_rev_at_epoch": 96664,
        "meta_bstar": 0.0024293,
        "meta_mean_motion_dot": 5.419e-05,
        "meta_mean_motion_ddot": 0,
        "tle_line1": "1 30403U 99025ADS 25336.74095874  .00005419  00000+0  24293-2 0  9998",
        "tle_line2": "2 30403  99.0609  54.9056 0075418  52.2172 308.5803 14.21399688966647"
      },
      "geometry": {
        "type": "Point",
        "coordinates": [
          76.88590226550231,
          -66.39343991962487
        ]
      }
    }
  ]
}